{
"type": "FeatureCollection",
"name": "river_buffer_500m",
"crs": { "type": "name", "properties": { "name": "urn:ogc:def:crs:EPSG::3826" } },
"features": [
{ "type": "Feature", "properties": { }, "geometry": { "type": "Polygon", "coordinates": [ [ [ 307981.772285468876362, 2771546.540254931896925 ], [ 307980.083669412590098, 2771940.726983579341322 ], [ 307982.281326308846474, 2771989.745239179115742 ], [ 307989.273012696765363, 2772038.312052945140749 ], [ 308000.991395306307822, 2772085.959703326690942 ], [ 308017.323620531184133, 2772132.229320756625384 ], [ 308038.112401263439097, 2772176.67530677979812 ], [ 308063.157531642529648, 2772218.869625380262733 ], [ 308092.21781513368478, 2772258.405925173312426 ], [ 308125.013387365150265, 2772294.903452759608626 ], [ 308161.228411355346907, 2772328.010719564277679 ], [ 308200.51411917374935, 2772357.408886838704348 ], [ 308242.492170741665177, 2772382.814836229663342 ], [ 308286.75829742802307, 2772403.983896343037486 ], [ 308332.886195348226465, 2772420.712199047207832 ], [ 308380.431630874169059, 2772432.838642818853259 ], [ 308428.936718815239146, 2772440.246444228570908 ], [ 308477.934332070988603, 2772442.864262620452791 ], [ 308626.905860242142808, 2772443.50328177260235 ], [ 308675.924146190925967, 2772441.305904638953507 ], [ 308724.491017331718467, 2772434.314491961617023 ], [ 308772.138751223217696, 2772422.596374423708767 ], [ 308818.408477160264738, 2772406.264403160661459 ], [ 308862.854595320124645, 2772385.47586294868961 ], [ 308905.049068104359321, 2772360.430957477074116 ], [ 308944.585542347747833, 2772331.370881289709359 ], [ 308981.083262695523445, 2772298.575496964156628 ], [ 309014.190738461562432, 2772262.360639902297407 ], [ 309043.589128653635271, 2772223.075076679233462 ], [ 309068.995312566112261, 2772181.097146255895495 ], [ 309090.164616369176656, 2772136.831116389948875 ], [ 309106.893169436254539, 2772090.703290341887623 ], [ 309119.019867716473527, 2772043.157901370432228 ], [ 309126.427925244672224, 2771994.652834549546242 ], [ 309129.045998846529983, 2771945.655217115301639 ], [ 309130.738916954200249, 2771551.468422012869269 ], [ 309128.541761347092688, 2771502.449785177130252 ], [ 309121.550501611665823, 2771453.882547894492745 ], [ 309109.832467892731074, 2771406.234442625194788 ], [ 309093.500512084981892, 2771359.964350022375584 ], [ 309072.711920999747235, 2771315.517879626248032 ], [ 309047.666901595657691, 2771273.323078370187432 ], [ 309018.606652862450574, 2771233.786308224778622 ], [ 308985.811042925459333, 2771197.288332680240273 ], [ 308949.595913743425626, 2771164.180649760644883 ], [ 308910.310039354953915, 2771134.78210687963292 ], [ 308868.33176696987357, 2771109.375830144621432 ], [ 308824.065373251854908, 2771088.206497675739229 ], [ 308777.937170884688385, 2771071.477983206044883 ], [ 308730.391402918379754, 2771059.3513926519081 ], [ 308681.885964434011839, 2771051.94351256173104 ], [ 308632.887992732226849, 2771049.325685392133892 ], [ 308483.912162509688642, 2771048.686732694972306 ], [ 308434.893556021852419, 2771050.884168067015707 ], [ 308386.326376113400329, 2771057.8757015154697 ], [ 308338.678354353643954, 2771069.59400030830875 ], [ 308292.408370258228388, 2771085.926210080273449 ], [ 308247.962031999370083, 2771106.715041687712073 ], [ 308205.767384927661624, 2771131.760286001022905 ], [ 308166.230789233755786, 2771160.82074203947559 ], [ 308129.733006452210248, 2771193.616539883892983 ], [ 308096.625532495498192, 2771229.831835994962603 ], [ 308067.227212533878628, 2771269.117854979354888 ], [ 308041.821170322073158, 2771311.09624850936234 ], [ 308020.652081544743851, 2771355.362739047501236 ], [ 308003.92381744022714, 2771401.49101328663528 ], [ 307991.797481396468356, 2771449.036827806849033 ], [ 307984.389857426809613, 2771497.542287410236895 ], [ 307981.772285468876362, 2771546.540254931896925 ] ] ] } },
{ "type": "Feature", "properties": { }, "geometry": { "type": "Polygon", "coordinates": [ [ [ 300738.362914461642504, 2769373.359401941299438 ], [ 300737.026492385542952, 2769729.750950406305492 ], [ 300739.250307486101519, 2769778.767885944340378 ], [ 300746.267883102293126, 2769827.330824030563235 ], [ 300758.011637024581432, 2769874.972083112690598 ], [ 300774.368471955065615, 2769921.232857794500887 ], [ 300795.180864682421088, 2769965.66763732675463 ], [ 300820.24838309653569, 2770007.848496062681079 ], [ 300849.329616434348281, 2770047.369214561767876 ], [ 300882.144500167050865, 2770083.849191654939204 ], [ 300918.377013139717747, 2770116.937109794467688 ], [ 300957.678220987902023, 2770146.314318388700485 ], [ 300999.669636522710789, 2770171.697902542538941 ], [ 301043.946864721889142, 2770192.843407646752894 ], [ 301090.083497224200983, 2770209.547193578910083 ], [ 301137.6352188216988, 2770221.648395843338221 ], [ 301186.144086402084213, 2770229.0304747633636 ], [ 301235.14293913426809, 2770231.622337809763849 ], [ 301508.572079693782143, 2770232.650459375698119 ], [ 301557.589052048395388, 2770230.42714448319748 ], [ 301606.152075604710262, 2770223.410061685368419 ], [ 301653.793467717710882, 2770211.66678848490119 ], [ 301700.054421446402557, 2770195.310417614877224 ], [ 301744.489424060855526, 2770174.498467908706516 ], [ 301786.670547519461252, 2770149.431367324665189 ], [ 301826.191569599264767, 2770120.350522740744054 ], [ 301862.67188598861685, 2770087.535995103418827 ], [ 301895.760175669915043, 2770051.303802320268005 ], [ 301925.137784290243872, 2770012.002875871956348 ], [ 301950.521792939398438, 2769970.011700456030667 ], [ 301971.667742779303808, 2769925.734669014345855 ], [ 301988.371989287319593, 2769879.598188258707523 ], [ 302000.473663439683151, 2769832.046572191175073 ], [ 302007.856220948859118, 2769783.537763170897961 ], [ 302010.448564634891227, 2769734.538921734318137 ], [ 302011.792119224439375, 2769378.147276463918388 ], [ 302009.569224760925863, 2769329.12965978262946 ], [ 302002.552436472557019, 2769280.565962569788098 ], [ 301990.809330746007618, 2769232.923885864205658 ], [ 301974.453001581015997, 2769186.66225488204509 ], [ 301953.640971419168636, 2769142.226600217632949 ], [ 301928.573674097075127, 2769100.044867087621242 ], [ 301899.492524533590768, 2769060.523293928708881 ], [ 301866.677593742206227, 2769024.04250004934147 ], [ 301830.444911558646709, 2768990.953820011112839 ], [ 301791.143423061468638, 2768961.575920038390905 ], [ 301749.151627996237949, 2768936.191729051060975 ], [ 301704.873935568728484, 2768915.045713866129518 ], [ 301658.736769712471869, 2768898.341524821240455 ], [ 301611.184462339850143, 2768886.240034481976181 ], [ 301562.674974126799498, 2768878.857788332737982 ], [ 301513.675484044244513, 2768876.26588236540556 ], [ 301240.239210971281864, 2768875.237857604864985 ], [ 301191.221631102846004, 2768877.46125228330493 ], [ 301142.658019356720615, 2768884.47853339696303 ], [ 301095.016075680789072, 2768896.222119852434844 ], [ 301048.754623745044228, 2768912.57891308516264 ], [ 301004.319192163995467, 2768933.391386274248362 ], [ 300962.137723758991342, 2768958.459101432468742 ], [ 300922.616454184055328, 2768987.54063975578174 ], [ 300886.135999605176039, 2769020.355926647316664 ], [ 300853.047691113606561, 2769056.588929024059325 ], [ 300823.670191172685008, 2769095.890698924195021 ], [ 300798.286424686433747, 2769137.882734109647572 ], [ 300777.140854243887588, 2769182.160623295232654 ], [ 300760.437125781492796, 2769228.297940897289664 ], [ 300748.336107337090652, 2769275.850353797432035 ], [ 300740.954339783347677, 2769324.359900567680597 ], [ 300738.362914461642504, 2769373.359401941299438 ] ] ] } },
{ "type": "Feature", "properties": { }, "geometry": { "type": "Polygon", "coordinates": [ [ [ 306069.30916735396022, 2773532.668331544380635 ], [ 306068.607496165903285, 2773701.870614256709814 ], [ 306070.811832946375944, 2773750.888264977373183 ], [ 306077.81007813999895, 2773799.453826304990798 ], [ 306089.534836149017792, 2773847.09959455858916 ], [ 306105.87319337122608, 2773893.366723992861807 ], [ 306126.667805598233826, 2773937.809645647183061 ], [ 306151.718413296213839, 2773980.000358331482857 ], [ 306180.783770176582038, 2774019.532550431787968 ], [ 306213.583966484118719, 2774056.025512835942209 ], [ 306249.803124627564102, 2774089.127805297728628 ], [ 306289.092441193468403, 2774118.520640931557864 ], [ 306331.073546047497075, 2774143.92095624608919 ], [ 306375.342146174050868, 2774165.084137143101543 ], [ 306421.471919161791448, 2774181.806374640669674 ], [ 306469.018618841015268, 2774193.926627627108246 ], [ 306517.524353532353416, 2774201.328173742163926 ], [ 306566.521995707240421, 2774203.939733455888927 ], [ 306986.185207841626834, 2774205.686555785592645 ], [ 307035.202900107309688, 2774203.48297815117985 ], [ 307083.76857708429452, 2774196.485483655706048 ], [ 307131.414533837232739, 2774184.761460688430816 ], [ 307177.681922667368781, 2774168.423815806396306 ], [ 307222.125171980704181, 2774147.629886406008154 ], [ 307264.316277302918024, 2774122.579925504978746 ], [ 307303.848923116165679, 2774093.515173236373812 ], [ 307340.342395823972765, 2774060.715533616952598 ], [ 307373.445250159595162, 2774024.496878972277045 ], [ 307402.838693730824161, 2773985.208007972221822 ], [ 307428.239657105063088, 2773943.227286573965102 ], [ 307449.403519869898446, 2773898.959004222881049 ], [ 307466.12646641547326, 2773852.829480398446321 ], [ 307478.247448752459604, 2773805.282959004864097 ], [ 307485.649737461761106, 2773756.777330142445862 ], [ 307488.262045840965584, 2773707.779720462393016 ], [ 307488.968923046311829, 2773538.577359863556921 ], [ 307486.766003388212994, 2773489.558676788583398 ], [ 307479.768973199417815, 2773440.991962734609842 ], [ 307468.045219034480397, 2773393.344950932078063 ], [ 307451.707649281655904, 2773347.076517200097442 ], [ 307430.913606771500781, 2773302.632260635960847 ], [ 307405.863353449909482, 2773260.440212167799473 ], [ 307376.798141707957257, 2773220.906712299678475 ], [ 307343.997890943603124, 2773184.412497754674405 ], [ 307307.778491731791291, 2773151.309034700505435 ], [ 307268.488763565488625, 2773121.915133869741112 ], [ 307226.507095467008185, 2773096.513880178332329 ], [ 307182.237801823124755, 2773075.349906408693641 ], [ 307136.107228539476637, 2773058.627037218306214 ], [ 307088.559647015819792, 2773046.50632615480572 ], [ 307040.052975484868512, 2773039.104504593182355 ], [ 306991.054368922603317, 2773036.492857527919114 ], [ 306571.385950770927593, 2773034.74611308472231 ], [ 306522.367309230496176, 2773036.949791904073209 ], [ 306473.800710819312371, 2773043.947572807315737 ], [ 306426.15388751210412, 2773055.672062030527741 ], [ 306379.885713174648117, 2773072.010344139765948 ], [ 306335.441784271679353, 2773092.805069492198527 ], [ 306293.250128445855808, 2773117.855969625525177 ], [ 306253.717082297778688, 2773146.92178599210456 ], [ 306217.223378066322766, 2773179.722593455575407 ], [ 306184.120476897689514, 2773215.942496175412089 ], [ 306154.727184016956016, 2773255.232669914606959 ], [ 306129.326578399748541, 2773297.21472147339955 ], [ 306108.16328651382355, 2773341.484332893975079 ], [ 306091.441126387100667, 2773387.615155339706689 ], [ 306079.321144690271467, 2773435.162915144581348 ], [ 306071.920065739133861, 2773483.669692497700453 ], [ 306069.30916735396022, 2773532.668331544380635 ] ] ] } },
{ "type": "Feature", "properties": { }, "geometry": { "type": "Polygon", "coordinates": [ [ [ 303228.63857926503988, 2768050.901449800934643 ], [ 303228.14513829536736, 2768176.464556199964136 ], [ 303230.360120964876842, 2768225.481767116580158 ], [ 303237.368921573506668, 2768274.045846725348383 ], [ 303249.104042760911398, 2768321.689104852732271 ], [ 303265.452470939257182, 2768367.952719177119434 ], [ 303286.256764656049199, 2768412.391153861302882 ], [ 303311.316570814175066, 2768454.57645022822544 ], [ 303340.390554146608338, 2768494.1023481618613 ], [ 303373.198721365013625, 2768530.588198543060571 ], [ 303409.425117599428631, 2768563.682629042770714 ], [ 303448.720869161421433, 2768593.06692796992138 ], [ 303490.707543327356689, 2768618.458113580942154 ], [ 303534.980792786867823, 2768639.611659301444888 ], [ 303581.114249657781329, 2768656.323848607484251 ], [ 303628.663631567673292, 2768668.433736891020089 ], [ 303677.171020258683711, 2768675.824701417703182 ], [ 303726.169271510734688, 2768678.425564446486533 ], [ 304112.644495840067975, 2768679.949839184992015 ], [ 304161.661743445147295, 2768677.735552944708616 ], [ 304210.225927754363511, 2768670.727441308088601 ], [ 304257.869357485265937, 2768658.992995014879853 ], [ 304304.133208566927351, 2768642.645221177954227 ], [ 304348.571942787268199, 2768621.841554981190711 ], [ 304390.757598493248224, 2768596.782343521248549 ], [ 304430.283912021666765, 2768567.708916389849037 ], [ 304466.770230170397554, 2768534.901261577382684 ], [ 304499.865176031424198, 2768498.675329087302089 ], [ 304529.250032881740481, 2768459.379988215398043 ], [ 304554.64181354525499, 2768417.393667811527848 ], [ 304575.79598566464847, 2768373.120711864903569 ], [ 304592.508826640201733, 2768326.987485521472991 ], [ 304604.61938555422239, 2768279.438269027974457 ], [ 304612.01103318890091, 2768230.930979147087783 ], [ 304614.612585209310055, 2768181.932759246788919 ], [ 304615.10957592271734, 2768056.369602234568447 ], [ 304612.895895301364362, 2768007.351444047410041 ], [ 304605.888211311714258, 2767958.786306561436504 ], [ 304594.154013002116699, 2767911.141907058656216 ], [ 304577.806309160951059, 2767864.877095451112837 ], [ 304557.002539960609283, 2767820.437435225117952 ], [ 304531.943060695019085, 2767778.250912343151867 ], [ 304502.869212213670835, 2767738.723813430406153 ], [ 304470.060996635525953, 2767702.236812943592668 ], [ 304433.834380726679228, 2767669.141306999139488 ], [ 304394.53825291240355, 2767639.756029175594449 ], [ 304352.55106323043583, 2767614.363980881869793 ], [ 304308.277178584132344, 2767593.209705846384168 ], [ 304262.14298839768162, 2767576.496934987604618 ], [ 304214.592798178724479, 2767564.386624335777014 ], [ 304166.084550535830203, 2767556.995404912158847 ], [ 304117.0854148613289, 2767554.394459488335997 ], [ 303730.606640788260847, 2767552.870235363021493 ], [ 303681.58851928130025, 2767555.084612426348031 ], [ 303633.023486489255447, 2767562.09298540186137 ], [ 303585.379258586908691, 2767573.827858619857579 ], [ 303539.114683735941071, 2767590.176216815598309 ], [ 303494.675323047442362, 2767610.980613549239933 ], [ 303452.489159508200828, 2767636.040687525644898 ], [ 303412.962476196873467, 2767665.115092218853533 ], [ 303376.47594348579878, 2767697.923820212483406 ], [ 303343.380952911800705, 2767734.150899873580784 ], [ 303313.996233022946399, 2767773.447438383940607 ], [ 303288.604779793764465, 2767815.434981831349432 ], [ 303267.451131170440931, 2767859.709159991703928 ], [ 303250.739011994621251, 2767905.843580704648048 ], [ 303238.629371986724436, 2767953.393936336506158 ], [ 303231.238835684547666, 2768001.902282783295959 ], [ 303228.63857926503988, 2768050.901449800934643 ] ] ] } },
{ "type": "Feature", "properties": { }, "geometry": { "type": "Polygon", "coordinates": [ [ [ 308925.850649377680384, 2770231.961859151721001 ], [ 308924.455551936640404, 2770552.633700057398528 ], [ 308926.649909416562878, 2770601.651809007395059 ], [ 308933.638269293354824, 2770650.218804344534874 ], [ 308945.35333113966044, 2770697.866968377493322 ], [ 308961.68227468279656, 2770744.137432094663382 ], [ 308982.467846304178238, 2770788.584594232961535 ], [ 309007.509873448929284, 2770830.780412583611906 ], [ 309036.567192359420005, 2770870.318526190239936 ], [ 309069.359970569552388, 2770906.818168750964105 ], [ 309105.572401792334858, 2770939.927835537586361 ], [ 309144.855747248104308, 2770969.328668512403965 ], [ 309186.831694145163056, 2770994.73752704448998 ], [ 309231.095998968405183, 2771015.909714657347649 ], [ 309277.222380490042269, 2771032.641335545107722 ], [ 309324.766625011747237, 2771044.771258160937577 ], [ 309373.270864303049166, 2771052.18266697274521 ], [ 309422.267985037295148, 2771054.804187439847738 ], [ 309830.116733065457083, 2771056.584737577941269 ], [ 309879.134889979555737, 2771054.391122130211443 ], [ 309927.702005574130453, 2771047.403494577854872 ], [ 309975.350360720243771, 2771035.689148336648941 ], [ 310021.621084288693964, 2771019.360896855127066 ], [ 310066.068572247575503, 2770998.57598718162626 ], [ 310108.264778992393985, 2770973.53458561655134 ], [ 310147.803339581994805, 2770944.477850038092583 ], [ 310184.303483182156924, 2770911.685607462190092 ], [ 310217.413700028206222, 2770875.473659207578748 ], [ 310246.815126592817251, 2770836.190739611629397 ], [ 310272.224616359046195, 2770794.215157593134791 ], [ 310293.397466624563094, 2770749.951153395231813 ], [ 310310.129775078967214, 2770703.825005607213825 ], [ 310322.260403457272332, 2770656.280925942584872 ], [ 310329.672529360919725, 2770607.776781320106238 ], [ 310332.294771299930289, 2770558.779684434644878 ], [ 310333.699444865691476, 2770238.107692761346698 ], [ 310331.506462294957601, 2770189.088574593886733 ], [ 310324.51927971362602, 2770140.520453382283449 ], [ 310312.805188807891682, 2770092.871075708419085 ], [ 310296.477004853426479, 2770046.599339981097728 ], [ 310275.691980221658014, 2770002.150876908563077 ], [ 310250.650289924291428, 2769959.953757747076452 ], [ 310221.593103781284299, 2769920.414371662773192 ], [ 310188.800263778830413, 2769883.913511905353516 ], [ 310152.587588985974435, 2769850.802708490286022 ], [ 310113.303833985934034, 2769821.400842706672847 ], [ 310071.327330113621429, 2769795.99107605824247 ], [ 310027.062341848039068, 2769774.818123210221529 ], [ 309980.935173449048307, 2769758.085895206779242 ], [ 309933.390063335362356, 2769745.955535659566522 ], [ 309884.884905742888805, 2769738.54386881692335 ], [ 309835.886840868042782, 2769735.922274458222091 ], [ 309428.02851671515964, 2769734.141875087749213 ], [ 309379.009446502430364, 2769736.335599705576897 ], [ 309330.441445542266592, 2769743.323514626827091 ], [ 309282.792258977715392, 2769755.038321153260767 ], [ 309236.520783101441339, 2769771.367197184823453 ], [ 309192.072645851236302, 2769792.152883779257536 ], [ 309149.875915088749025, 2769817.195199669804424 ], [ 309110.336975995043758, 2769846.252969156950712 ], [ 309073.836617286200635, 2769879.046344804111868 ], [ 309040.726363940862939, 2769915.259502573404461 ], [ 309011.325091759732459, 2769954.543683439958841 ], [ 308985.915956359414849, 2769996.520552194677293 ], [ 308964.743666178430431, 2770040.785841086413711 ], [ 308948.012125756766181, 2770086.913243217393756 ], [ 308935.882471987395547, 2770134.458518184255809 ], [ 308928.471522250561975, 2770182.963770437985659 ], [ 308925.850649377680384, 2770231.961859151721001 ] ] ] } },
{ "type": "Feature", "properties": { }, "geometry": { "type": "Polygon", "coordinates": [ [ [ 302762.678208107477985, 2774054.376730350777507 ], [ 302761.532083622470964, 2774347.843524388503283 ], [ 302763.748286423739046, 2774396.860957901924849 ], [ 302770.75835008919239, 2774445.425135548692197 ], [ 302782.494764331320766, 2774493.068360920995474 ], [ 302798.844501831394155, 2774539.331806823611259 ], [ 302819.650106746994425, 2774583.769934002775699 ], [ 302844.711211087473202, 2774625.954781902953982 ], [ 302873.786464354314376, 2774665.4800901315175 ], [ 302906.595857862615958, 2774701.965210944414139 ], [ 302942.823421359236818, 2774735.0587750650011 ], [ 302982.12026596890064, 2774764.442075540311635 ], [ 303024.107944161456544, 2774789.832137043122202 ], [ 303068.382094384287484, 2774810.984441058244556 ], [ 303114.516335258318577, 2774827.695280716288835 ], [ 303162.066371836233884, 2774839.803722587414086 ], [ 303210.574274376558606, 2774847.193156547378749 ], [ 303259.572888427355792, 2774849.792418790515512 ], [ 303399.630920427676756, 2774850.34015690907836 ], [ 303448.648377772478852, 2774848.124214151408523 ], [ 303497.212604455125984, 2774841.1144057684578 ], [ 303544.855903365358245, 2774829.378239622805268 ], [ 303591.119446374825202, 2774813.028740698937327 ], [ 303635.557693075330462, 2774792.223362619057298 ], [ 303677.742681549396366, 2774767.162471288349479 ], [ 303717.268149851530325, 2774738.08741527190432 ], [ 303753.753448508447036, 2774705.278201493434608 ], [ 303786.847206358215772, 2774669.050798629876226 ], [ 303816.230714425619226, 2774629.754094181582332 ], [ 303841.620995244535152, 2774587.766534514725208 ], [ 303862.773528068151791, 2774543.492480238899589 ], [ 303879.484603723045439, 2774497.35831201961264 ], [ 303891.593286427319981, 2774449.808324322104454 ], [ 303898.982963680289686, 2774401.300446643028408 ], [ 303901.582469297922216, 2774352.301833423785865 ], [ 303902.731607948662713, 2774058.834997044410557 ], [ 303900.515877221187111, 2774009.817209231201559 ], [ 303893.506216283130925, 2773961.252637388184667 ], [ 303881.770132458710577, 2773913.608988061081618 ], [ 303865.420651417050976, 2773867.345098747406155 ], [ 303844.615228665352333, 2773822.906519012060016 ], [ 303819.554233156435657, 2773780.721219571772963 ], [ 303790.479017612757161, 2773741.195470675360411 ], [ 303757.669594152423088, 2773704.709929471369833 ], [ 303721.441937600553501, 2773671.615974048618227 ], [ 303682.144942459010053, 2773642.232319449540228 ], [ 303640.157062838261481, 2773616.841948248445988 ], [ 303595.882667713100091, 2773595.689385258127004 ], [ 303549.748146601836197, 2773578.978342603892088 ], [ 303502.197803174320143, 2773566.86975785298273 ], [ 303453.689576335600577, 2773559.48024408519268 ], [ 303404.690629994205665, 2773556.880966841243207 ], [ 303264.629583828151226, 2773556.333271064329892 ], [ 303215.611819845216814, 2773558.549261837266386 ], [ 303167.047297037497628, 2773565.559178059920669 ], [ 303119.403721248090733, 2773577.295509982854128 ], [ 303073.139929041382857, 2773593.645229602232575 ], [ 303028.701468827784993, 2773614.450879191979766 ], [ 302986.516309962316882, 2773639.512087712064385 ], [ 302946.990721139940433, 2773668.587500507477671 ], [ 302910.50535778113408, 2773701.397103698924184 ], [ 302877.411596088961232, 2773737.624920884612948 ], [ 302848.028149083314929, 2773776.92205618834123 ], [ 302822.637997200537939, 2773818.910054334904999 ], [ 302801.485663020284846, 2773863.18454540707171 ], [ 302784.774856364470907, 2773909.319139172788709 ], [ 302772.666512448107824, 2773956.869531480129808 ], [ 302765.277241975301877, 2774005.377783178817481 ], [ 302762.678208107477985, 2774054.376730350777507 ] ] ] } },
{ "type": "Feature", "properties": { }, "geometry": { "type": "Polygon", "coordinates": [ [ [ 302570.520745899935719, 2770128.12716223532334 ], [ 302569.950573068461381, 2770274.889161697588861 ], [ 302572.167744863370899, 2770323.906197319272906 ], [ 302579.178699460171629, 2770372.469888978637755 ], [ 302590.915918964601588, 2770420.112551689613611 ], [ 302607.266369932563975, 2770466.375370292458683 ], [ 302628.072591920732521, 2770510.812817997299135 ], [ 302653.134213884652127, 2770552.996946961153299 ], [ 302682.20988382055657, 2770592.52150957332924 ], [ 302715.019593067641836, 2770629.005870758090168 ], [ 302751.247372887737583, 2770662.098673619329929 ], [ 302790.5443373520975, 2770691.481223131064326 ], [ 302832.532043232640717, 2770716.870555276982486 ], [ 302876.806134539772756, 2770738.02216209191829 ], [ 302922.940236609138083, 2770754.732346356846392 ], [ 302970.490062235563528, 2770766.840183274354786 ], [ 303018.997690311109181, 2770774.229070227127522 ], [ 303067.995975762314629, 2770776.827849702909589 ], [ 303520.521911631280091, 2770778.593460063450038 ], [ 303569.538990194443613, 2770776.377104357816279 ], [ 303618.102804493450094, 2770769.366957125253975 ], [ 303665.745668247109279, 2770757.630528502166271 ], [ 303712.008764245838393, 2770741.280844343360513 ], [ 303756.44656291930005, 2770720.475357746239752 ], [ 303798.631112939910963, 2770695.414432722143829 ], [ 303838.156162541767117, 2770666.339414623565972 ], [ 303874.641071865276899, 2770633.530305901542306 ], [ 303907.734478650265373, 2770597.303069588728249 ], [ 303937.117681975592859, 2770558.006586465984583 ], [ 303962.507711459242273, 2770516.019295218400657 ], [ 303983.660052360326517, 2770471.745547941885889 ], [ 304000.37100034073228, 2770425.611716093029827 ], [ 304012.479623207822442, 2770378.062084383331239 ], [ 304019.869310747308191, 2770329.554572165478021 ], [ 304022.468897719401866, 2770280.556323512457311 ], [ 304023.043932857573964, 2770133.794255618937314 ], [ 304020.828286907810252, 2770084.776109902653843 ], [ 304013.818640861136373, 2770036.211178535129875 ], [ 304002.082502871868201, 2769988.56717826705426 ], [ 303985.732900760020129, 2769942.302956591360271 ], [ 303964.927293469081633, 2769897.864072698168457 ], [ 303939.866054617799819, 2769855.678506402298808 ], [ 303910.79054275189992, 2769816.152536380570382 ], [ 303877.98077688011108, 2769779.666827398817986 ], [ 303841.75273968098918, 2769746.572764228563756 ], [ 303802.45533435215475, 2769717.189067543484271 ], [ 303760.467024410841987, 2769691.798724404536188 ], [ 303716.192188806133345, 2769670.646262878086418 ], [ 303670.057227445708122, 2769653.935397050343454 ], [ 303622.506454645015765, 2769641.82706510508433 ], [ 303573.997820046497509, 2769634.437879369594157 ], [ 303524.998498220986221, 2769631.839003250468522 ], [ 303072.467700045322999, 2769630.073461321182549 ], [ 303023.449597258935682, 2769632.289923378266394 ], [ 302974.884788523253519, 2769639.300376808270812 ], [ 302927.240989293262828, 2769651.037305697798729 ], [ 302880.977045013045426, 2769667.387674637604505 ], [ 302836.538512090861332, 2769688.194017337635159 ], [ 302794.353366857452784, 2769713.255953146144748 ], [ 302754.827883833495434, 2769742.332116864155978 ], [ 302718.342723002249841, 2769775.142483273986727 ], [ 302685.249263768666424, 2769811.371063990984112 ], [ 302655.866220912954304, 2769850.668950669001788 ], [ 302630.476575128675904, 2769892.657675248105079 ], [ 302609.324847706768196, 2769936.932854885235429 ], [ 302592.61474561272189, 2769983.068086463958025 ], [ 302580.507199635903817, 2770030.61905317613855 ], [ 302573.118814505462069, 2770079.1278036236763 ], [ 302570.520745899935719, 2770128.12716223532334 ] ] ] } },
{ "type": "Feature", "properties": { }, "geometry": { "type": "Polygon", "coordinates": [ [ [ 305461.063280028989539, 2771683.83446982735768 ], [ 305458.841408660868183, 2772225.820727787446231 ], [ 305461.048089898307808, 2772274.838476704899222 ], [ 305468.04869767249329, 2772323.403903108555824 ], [ 305479.775813074142206, 2772371.049300739075989 ], [ 305496.116498861694708, 2772417.315823614597321 ], [ 305516.913387096661609, 2772461.757904919795692 ], [ 305541.966194665408693, 2772503.94754800805822 ], [ 305571.033652092795819, 2772543.478448196314275 ], [ 305603.835827072907705, 2772579.969905656762421 ], [ 305640.056820339057595, 2772613.070491721387953 ], [ 305679.347807911864948, 2772642.461433294229209 ], [ 305721.330400426464621, 2772667.85968277649954 ], [ 305765.600287187087815, 2772689.02064393600449 ], [ 305811.731129855907056, 2772705.740527478046715 ], [ 305859.278668277082033, 2772717.858313624281436 ], [ 305907.784998896124307, 2772725.257302803453058 ], [ 305956.782984571182169, 2772727.866239519324154 ], [ 306191.751477899495512, 2772728.831602879334241 ], [ 306240.769269984215498, 2772726.625359729398042 ], [ 306289.334781959129032, 2772719.625181423965842 ], [ 306336.980306293582544, 2772707.898482801392674 ], [ 306383.246995347901247, 2772691.558197196573019 ], [ 306427.689280280785169, 2772670.761688844300807 ], [ 306469.879162076045759, 2772645.709237391594797 ], [ 306509.410333363863174, 2772616.642109113745391 ], [ 306545.902091341675259, 2772583.840233414433897 ], [ 306579.003004112280905, 2772547.619506979826838 ], [ 306608.394295129284728, 2772508.328751552850008 ], [ 306633.792913157609291, 2772466.346354623325169 ], [ 306654.954258182959165, 2772422.076625389512628 ], [ 306671.67453701904742, 2772375.945901080034673 ], [ 306683.792725926847197, 2772328.398441134020686 ], [ 306691.192121344793122, 2772279.89214878808707 ], [ 306693.801463796524331, 2772230.894161261618137 ], [ 306696.032665670034476, 2771688.907765287905931 ], [ 306693.826775501365773, 2771639.889419482089579 ], [ 306686.826841952628456, 2771591.323329385370016 ], [ 306675.100278980797157, 2771543.677218338940293 ], [ 306658.760021088237409, 2771497.409949681721628 ], [ 306637.963435689161997, 2771452.967107595410198 ], [ 306612.910807558335364, 2771410.77670583454892 ], [ 306583.843409956840333, 2771371.245065675582737 ], [ 306551.041181012406014, 2771334.752902773674577 ], [ 306514.820027731300797, 2771301.651660622563213 ], [ 306475.528783606248908, 2771272.260125921107829 ], [ 306433.545849121059291, 2771246.861358451191336 ], [ 306389.275547505414579, 2771225.69996502250433 ], [ 306343.144230836478528, 2771208.97974375076592 ], [ 306295.596173988597002, 2771196.861721347551793 ], [ 306247.089295974350534, 2771189.462602325715125 ], [ 306198.090749883966055, 2771186.853645061608404 ], [ 305963.112926050263923, 2771185.888419715221971 ], [ 305914.09462340909522, 2771188.094747976399958 ], [ 305865.528618881595321, 2771195.095110999885947 ], [ 305817.882634538516868, 2771206.822090755682439 ], [ 305771.615532060503028, 2771223.162748835980892 ], [ 305727.172893602866679, 2771243.959714123047888 ], [ 305684.982730551157147, 2771269.012698374222964 ], [ 305645.45136149431346, 2771298.080425129272044 ], [ 305608.959499113319907, 2771330.882953357882798 ], [ 305575.858583671972156, 2771367.104373473208398 ], [ 305546.46739841910312, 2771406.395849745254964 ], [ 305521.068999500013888, 2771448.378979816567153 ], [ 305499.907989941944834, 2771492.649438959080726 ], [ 305483.188163969083689, 2771538.78087398596108 ], [ 305471.070544331800193, 2771586.329009307548404 ], [ 305463.671831553452648, 2771634.835925592109561 ], [ 305461.063280028989539, 2771683.83446982735768 ] ] ] } },
{ "type": "Feature", "properties": { }, "geometry": { "type": "Polygon", "coordinates": [ [ [ 302758.26772802521009, 2771410.159784103278071 ], [ 302757.496148080856074, 2771607.957900843117386 ], [ 302759.712575321667828, 2771656.975302832666785 ], [ 302766.722857179469429, 2771705.539427408482879 ], [ 302778.459481324243825, 2771753.182579080108553 ], [ 302794.809418514138088, 2771799.445931762456894 ], [ 302815.615211120690219, 2771843.8839474869892 ], [ 302840.676489520119503, 2771886.068667143583298 ], [ 302869.751901747717056, 2771925.593831929378211 ], [ 302902.561437831376679, 2771962.07879581162706 ], [ 302938.789126419986133, 2771995.172191332094371 ], [ 302978.086077737098094, 2772024.555313438177109 ], [ 303020.073843554535415, 2772049.945188766345382 ], [ 303064.348061827593483, 2772071.097300808411092 ], [ 303110.482350893027615, 2772087.807944720145315 ], [ 303158.03241572616389, 2772099.916189097333699 ], [ 303206.540326711896341, 2772107.305425819009542 ], [ 303255.538929723668844, 2772109.904493040405214 ], [ 303416.152602427755482, 2772110.531987903639674 ], [ 303465.170025847386569, 2772108.315854612272233 ], [ 303513.734200447739568, 2772101.305862397421151 ], [ 303561.377430101973005, 2772089.569520821794868 ], [ 303607.640887821733486, 2772073.219856443349272 ], [ 303652.079034479276743, 2772052.414324315730482 ], [ 303694.263909561675973, 2772027.353291620500386 ], [ 303733.789252634276636, 2771998.278108036145568 ], [ 303770.274415821942966, 2771965.468781426083297 ], [ 303803.368029629695229, 2771929.241281227674335 ], [ 303832.751386797928717, 2771889.94449551962316 ], [ 303858.141511605354026, 2771847.95687106018886 ], [ 303879.293885059654713, 2771803.682768667116761 ], [ 303896.004799732181709, 2771757.548569028731436 ], [ 303908.113321557175368, 2771709.998566456139088 ], [ 303915.502839703578502, 2771661.490690115839243 ], [ 303918.102189592958894, 2771612.49209395609796 ], [ 303918.876096683670767, 2771414.693944464903325 ], [ 303916.660210735572036, 2771365.676142292562872 ], [ 303909.650391840259545, 2771317.111571673303843 ], [ 303897.914148901938461, 2771269.467939548194408 ], [ 303881.564509220363107, 2771223.2040836494416 ], [ 303860.758929967763834, 2771178.765553606674075 ], [ 303835.697781778464559, 2771136.580320031382143 ], [ 303806.622419055434875, 2771097.054652891121805 ], [ 303773.812855577853043, 2771060.56920887902379 ], [ 303737.585067794425413, 2771027.475365453399718 ], [ 303698.287951774371322, 2770998.091836855281144 ], [ 303656.299963121884502, 2770972.701604692265391 ], [ 303612.025472213630565, 2770951.549192650709301 ], [ 303565.890869861585088, 2770934.838311579544097 ], [ 303518.340460904641077, 2770922.729897629003972 ], [ 303469.832185277540702, 2770915.340562337543815 ], [ 303420.833207765361294, 2770912.74146958719939 ], [ 303260.217207914916798, 2770912.11400747532025 ], [ 303211.19942717126105, 2770914.330187375191599 ], [ 303162.634906576189678, 2770921.34029591595754 ], [ 303114.991352433571592, 2770933.076821425929666 ], [ 303068.727601572172716, 2770949.426733921747655 ], [ 303024.289202463405672, 2770970.232573655433953 ], [ 302982.104124314966612, 2770995.293967551086098 ], [ 302942.578635463025421, 2771024.369558919221163 ], [ 302906.093390757741872, 2771057.179331871215254 ], [ 302872.999765621556435, 2771093.40730804624036 ], [ 302843.616472087684087, 2771132.704589676111937 ], [ 302818.226489406137262, 2771174.6927196867764 ], [ 302797.074338779086247, 2771218.967326474841684 ], [ 302780.363728470576461, 2771265.102018253412098 ], [ 302768.255591970635578, 2771312.652489469852298 ], [ 302760.866538105939981, 2771361.160799740813673 ], [ 302758.26772802521009, 2771410.159784103278071 ] ] ] } },
{ "type": "Feature", "properties": { }, "geometry": { "type": "Polygon", "coordinates": [ [ [ 308250.27951061388012, 2765703.074312940239906 ], [ 308248.218563242349774, 2766183.122176300734282 ], [ 308250.415729809028562, 2766232.140146350488067 ], [ 308257.406870362232439, 2766280.706728301942348 ], [ 308269.124657731619664, 2766328.354208695702255 ], [ 308285.456245456589386, 2766374.623725346755236 ], [ 308306.244354537979234, 2766419.069686349947006 ], [ 308331.288788090692833, 2766461.264061291702092 ], [ 308360.348359310999513, 2766500.800503332167864 ], [ 308393.143214191019069, 2766537.298262470401824 ], [ 308429.357526612700894, 2766570.405852302908897 ], [ 308468.642539865453728, 2766599.80443496350199 ], [ 308510.61992529744748, 2766625.210891642607749 ], [ 308554.885425754880998, 2766646.380549126304686 ], [ 308601.012748722510878, 2766663.109536081552505 ], [ 308648.557671671966091, 2766675.236746413167566 ], [ 308697.062320082855877, 2766682.645390772726387 ], [ 308746.059576937113889, 2766685.264121279120445 ], [ 309162.996059243392665, 2766687.060615901369601 ], [ 309212.014085271512158, 2766684.864211201202124 ], [ 309260.580797302071005, 2766677.873821238055825 ], [ 309308.228480206511449, 2766666.156766013707966 ], [ 309354.498269441537559, 2766649.825885037891567 ], [ 309398.944570081715938, 2766629.038450643420219 ], [ 309441.139348061115015, 2766603.994653396308422 ], [ 309480.676252297242172, 2766574.935674186330289 ], [ 309517.174527999886777, 2766542.141361569054425 ], [ 309550.282683478493709, 2766505.927536721341312 ], [ 309579.681875135400333, 2766466.642951968125999 ], [ 309605.088978045328986, 2766424.665932171512395 ], [ 309626.259312552108895, 2766380.40073132282123 ], [ 309642.989000622590538, 2766334.273639431688935 ], [ 309655.11692926636897, 2766286.728877195157111 ], [ 309662.526302112732083, 2766238.224317993968725 ], [ 309665.145764201995917, 2766189.227078401483595 ], [ 309667.221339820476715, 2765709.178986675105989 ], [ 309665.025575546256732, 2765660.159979965072125 ], [ 309658.035634311614558, 2765611.592242513783276 ], [ 309646.318834406381939, 2765563.943517456762493 ], [ 309629.988017255906016, 2765517.672697161324322 ], [ 309609.200460674997885, 2765473.225403756834567 ], [ 309584.156364166294225, 2765431.029697462916374 ], [ 309555.096920851792675, 2765391.491954054217786 ], [ 309522.301994604757056, 2765354.992951163090765 ], [ 309486.087424754339736, 2765321.884201109409332 ], [ 309446.801984320161864, 2765292.484565576072782 ], [ 309404.824021070380695, 2765267.077184739056975 ], [ 309360.557813754014205, 2765245.906750416383147 ], [ 309314.429678598127794, 2765229.177149505820125 ], [ 309266.883863568422385, 2765217.049500403460115 ], [ 309218.378269933222327, 2765209.640601315535605 ], [ 309169.380042336997576, 2765207.02180540561676 ], [ 308752.428931783768348, 2765205.225539149250835 ], [ 308703.409981042728759, 2765207.422065305989236 ], [ 308654.84237366396701, 2765214.412757147103548 ], [ 308607.193851114134304, 2765226.130289213731885 ], [ 308560.923303402902093, 2765242.461813129484653 ], [ 308516.476349637436215, 2765263.250044412910938 ], [ 308474.281046386109665, 2765288.294777241069824 ], [ 308434.743765180988703, 2765317.354812578763813 ], [ 308398.245278864167631, 2765350.150281099136919 ], [ 308365.137094467645511, 2765386.3653385322541 ], [ 308335.738067944126669, 2765425.651207472663373 ], [ 308310.33133335202001, 2765467.629536360967904 ], [ 308289.161576067912392, 2765511.896043287124485 ], [ 308272.432676287833601, 2765558.024409517180175 ], [ 308260.305745512712747, 2765605.57038525538519 ], [ 308252.897574926901143, 2765654.076068092603236 ], [ 308250.27951061388012, 2765703.074312940239906 ] ] ] } },
{ "type": "Feature", "properties": { }, "geometry": { "type": "Polygon", "coordinates": [ [ [ 309172.531834164925385, 2776608.869685056619346 ], [ 309171.918958591704722, 2776748.798443378414959 ], [ 309174.11187379329931, 2776797.816586538217962 ], [ 309181.098798742576037, 2776846.383757710922509 ], [ 309192.812446914205793, 2776894.032238089945167 ], [ 309209.14001178892795, 2776940.303156183101237 ], [ 309229.924253219622187, 2776984.750906903296709 ], [ 309254.965011708729435, 2777026.947442901320755 ], [ 309284.021136014198419, 2777066.4863968109712 ], [ 309316.812805520021357, 2777102.986994709819555 ], [ 309353.024225006403867, 2777136.097723102662712 ], [ 309392.306665867974516, 2777165.499714121688157 ], [ 309434.281824491801672, 2777190.909816334024072 ], [ 309478.545465453411452, 2777212.083321588579565 ], [ 309524.671314444858581, 2777228.81632164074108 ], [ 309572.215163445041981, 2777240.947671861853451 ], [ 309620.719148597854655, 2777248.360543115995824 ], [ 309669.716159601171967, 2777250.983546866104007 ], [ 310106.584857403009664, 2777252.904042973648757 ], [ 310155.603042381699197, 2777250.711918172426522 ], [ 310204.170332553156186, 2777243.72577509097755 ], [ 310251.819007842568681, 2777232.01289274264127 ], [ 310298.090194759424776, 2777215.686070300173014 ], [ 310342.538285510323476, 2777194.902540803421289 ], [ 310384.735229358775541, 2777169.862456945702434 ], [ 310424.274654904264025, 2777140.806963535957038 ], [ 310460.77578358136816, 2777108.015875188168138 ], [ 310493.887096691702027, 2777071.804981607943773 ], [ 310523.289720651926473, 2777032.523006428498775 ], [ 310548.700497859041207, 2776990.548248877283186 ], [ 310569.87471359706251, 2776946.284940622746944 ], [ 310586.608452726213727, 2776900.15935288136825 ], [ 310598.740563457133248, 2776852.615691274870187 ], [ 310606.154209299304057, 2776804.111817975062877 ], [ 310608.777994237432722, 2776755.114842330105603 ], [ 310609.395357316476293, 2776615.186013331636786 ], [ 310607.203919557738118, 2776566.166795743629336 ], [ 310600.21826165728271, 2776517.598424594383687 ], [ 310588.505660700728185, 2776469.948649451136589 ], [ 310572.178917753743008, 2776423.6763731171377 ], [ 310551.395271504006814, 2776379.227232057135552 ], [ 310526.354883935651742, 2776337.029304586816579 ], [ 310497.298912620230112, 2776297.488988157827407 ], [ 310464.507188189949375, 2776260.987085449974984 ], [ 310428.295519360166509, 2776227.875136957969517 ], [ 310389.012651456636377, 2776198.472035392653197 ], [ 310347.036907738191076, 2776173.060954508837312 ], [ 310302.77254586230265, 2776151.886621931102127 ], [ 310256.645864582969807, 2776135.152962243650109 ], [ 310209.101098176091909, 2776123.021133045200258 ], [ 310160.596138133085333, 2776115.607972881291062 ], [ 310111.598123324802145, 2776112.984876002650708 ], [ 309674.72493801714154, 2776111.064450571779162 ], [ 309625.705762237077579, 2776113.256678747944534 ], [ 309577.137510079366621, 2776120.243118533864617 ], [ 309529.487929841969162, 2776131.956485331524163 ], [ 309483.215922330506146, 2776148.283970728516579 ], [ 309438.76712130359374, 2776169.068328929133713 ], [ 309396.569601688650437, 2776194.109391144476831 ], [ 309357.029756903240923, 2776223.165993369650096 ], [ 309320.528384984587319, 2776255.958298970479518 ], [ 309287.417021222296171, 2776292.17049371637404 ], [ 309258.014552612439729, 2776331.453827309422195 ], [ 309232.604146739526186, 2776373.429972105193883 ], [ 309211.43052466242807, 2776417.694666689727455 ], [ 309194.697604069078807, 2776463.82160921767354 ], [ 309182.566535397840198, 2776511.366563013289124 ], [ 309175.154149839247111, 2776559.871634901035577 ], [ 309172.531834164925385, 2776608.869685056619346 ] ] ] } },
{ "type": "Feature", "properties": { }, "geometry": { "type": "Polygon", "coordinates": [ [ [ 303878.048198617238086, 2769763.071443640161306 ], [ 303875.88275851047365, 2770307.09722859505564 ], [ 303878.095269975892734, 2770356.114634237252176 ], [ 303885.101638440799434, 2770404.679148687515408 ], [ 303896.834389739087783, 2770452.323076000902802 ], [ 303913.180532723374199, 2770498.587585859466344 ], [ 303933.982647415541578, 2770543.027132292743772 ], [ 303959.040401025384199, 2770585.213744468986988 ], [ 303988.112477235787082, 2770624.741148225031793 ], [ 304020.91890017723199, 2770661.228678652085364 ], [ 304057.14373070851434, 2770694.324946052394807 ], [ 304096.4381090386305, 2770723.711219965945929 ], [ 304138.42361438809894, 2770749.104498671833426 ], [ 304182.695909334113821, 2770770.260234610177577 ], [ 304228.828633743687533, 2770786.974689474795014 ], [ 304276.377510794671252, 2770799.086896295193583 ], [ 304324.8846255413373, 2770806.480209613684565 ], [ 304373.882834820833523, 2770809.083428828511387 ], [ 304679.641419868567027, 2770810.304004102014005 ], [ 304728.658873868116643, 2770808.092057004570961 ], [ 304777.223491439712234, 2770801.086243227124214 ], [ 304824.867575209005736, 2770789.354031656403095 ], [ 304871.132292923517525, 2770773.008408347610384 ], [ 304915.572096196818165, 2770752.206788420677185 ], [ 304957.759011324145831, 2770727.149500087369233 ], [ 304997.286760846269317, 2770698.077855409588665 ], [ 305033.774676169850864, 2770665.271826361771673 ], [ 305066.871363563288469, 2770629.047348585445434 ], [ 305096.258088224160019, 2770589.753278800752014 ], [ 305121.651843827101402, 2770547.768035167362541 ], [ 305142.808077991881873, 2770503.495952965226024 ], [ 305159.523047424387187, 2770457.363390675280243 ], [ 305171.635780048440211, 2770409.814623972866684 ], [ 305179.029625233961269, 2770361.30756716709584 ], [ 305181.633377190504689, 2770312.309363299049437 ], [ 305183.810994889296126, 2769768.283402970992029 ], [ 305181.599512635730207, 2769719.265228673350066 ], [ 305174.594022923789453, 2769670.6998585104011 ], [ 305162.86199344106717, 2769623.055010421201587 ], [ 305146.516411706164945, 2769576.789537085685879 ], [ 305125.714696921175346, 2769532.349006854463369 ], [ 305100.657183916540816, 2769490.161412620916963 ], [ 305071.585193788574543, 2769450.633049952797592 ], [ 305038.778709811274894, 2769414.144604189321399 ], [ 305002.55368100485066, 2769381.04748417576775 ], [ 304963.258979328908026, 2769351.660437957849354 ], [ 304921.273039805644657, 2769326.266483016777784 ], [ 304877.000215929874685, 2769305.110180615913123 ], [ 304830.866885466850363, 2769288.395280508324504 ], [ 304783.317344140668865, 2769276.282758686691523 ], [ 304734.809526760771405, 2769268.889267073012888 ], [ 304685.810596994531807, 2769266.286010079085827 ], [ 304380.039834354771301, 2769265.065610178746283 ], [ 304331.021708409825806, 2769267.277656809426844 ], [ 304282.456441364367492, 2769274.283701217733324 ], [ 304234.811749729677103, 2769286.016270436812192 ], [ 304188.546484250633512, 2769302.362371855881065 ], [ 304144.106210861064028, 2769323.164581414312124 ], [ 304101.918919581454247, 2769348.22255970351398 ], [ 304062.390902683953755, 2769377.294981370680034 ], [ 304025.902841822127812, 2769410.10185924731195 ], [ 303992.806141807930544, 2769446.327240813523531 ], [ 303963.419546344666742, 2769485.622251037508249 ], [ 303938.026068308390677, 2769527.608452279120684 ], [ 303916.870264142169617, 2769571.881488898769021 ], [ 303900.155878610850777, 2769618.014981479849666 ], [ 303888.043882601021323, 2769665.56463315198198 ], [ 303880.650922861765139, 2769714.072508468292654 ], [ 303878.048198617238086, 2769763.071443640161306 ] ] ] } },
{ "type": "Feature", "properties": { }, "geometry": { "type": "Polygon", "coordinates": [ [ [ 308038.138352349575143, 2767771.369982769247144 ], [ 308036.369296629389282, 2768184.575340557377785 ], [ 308038.567050918238238, 2768233.593324500601739 ], [ 308045.558781634957995, 2768282.159862109925598 ], [ 308057.277155815332662, 2768329.807239586021751 ], [ 308073.609321162744891, 2768376.07659498276189 ], [ 308094.397992857499048, 2768420.522337218746543 ], [ 308119.442968268354889, 2768462.716437285766006 ], [ 308148.503054977976717, 2768502.252550324425101 ], [ 308181.298393555625807, 2768538.749928878620267 ], [ 308217.513152707600966, 2768571.857089634984732 ], [ 308256.798570849641692, 2768601.255198335740715 ], [ 308298.776314810616896, 2768626.661140272859484 ], [ 308343.042123321734834, 2768647.830246787518263 ], [ 308389.169700202473905, 2768664.558651519473642 ], [ 308436.714819751272444, 2768676.685253717005253 ], [ 308485.219604804180562, 2768684.093269695993513 ], [ 308534.216936261800583, 2768686.711357509717345 ], [ 308916.949686205945909, 2768688.355422676540911 ], [ 308965.967720206826925, 2768686.158367412630469 ], [ 309014.534375886723865, 2768679.167325629387051 ], [ 309062.181937952642329, 2768667.449623708147556 ], [ 309108.451542331196833, 2768651.118107556831092 ], [ 309152.897595203714445, 2768630.330055863596499 ], [ 309195.092064243101049, 2768605.285665441304445 ], [ 309234.628600727766752, 2768576.226123257074505 ], [ 309271.126452833472285, 2768543.431283711921424 ], [ 309304.234132417710498, 2768507.216973533388227 ], [ 309333.632799983723089, 2768467.931950248777866 ], [ 309359.03933522553416, 2768425.954543514177203 ], [ 309380.209063583810348, 2768381.689011659473181 ], [ 309396.93811255460605, 2768335.561648525763303 ], [ 309409.065375058795325, 2768288.01667809439823 ], [ 309416.474060964188538, 2768239.511976442765445 ], [ 309419.092821818834636, 2768190.514662223402411 ], [ 309420.873445615230594, 2767777.309124778024852 ], [ 309418.676979767042212, 2767728.290189740248024 ], [ 309411.68635127163725, 2767679.722591820638627 ], [ 309399.968884927220643, 2767632.074072043877095 ], [ 309383.637428392656147, 2767585.803520049434155 ], [ 309362.849265382741578, 2767541.356554650701582 ], [ 309337.804600912437309, 2767499.161232208367437 ], [ 309308.744633178343065, 2767459.62392413476482 ], [ 309275.949230645725038, 2767423.125403244514018 ], [ 309239.734236713266, 2767390.017176639754325 ], [ 309200.448427913128398, 2767360.618100440595299 ], [ 309158.470154941314831, 2767335.211308971513063 ], [ 309114.203698867175262, 2767314.041487973649055 ], [ 309068.075377615052275, 2767297.312518103513867 ], [ 309020.529440214799251, 2767285.185511417221278 ], [ 308972.023788363148924, 2767277.777259741444141 ], [ 308923.025566499563865, 2767275.159109888132662 ], [ 308540.281248479208443, 2767273.515224378556013 ], [ 308491.262363491172437, 2767275.712389264721423 ], [ 308442.694883636606392, 2767282.703706707805395 ], [ 308395.046548446814995, 2767294.421845324803144 ], [ 308348.776245433313306, 2767310.753951068967581 ], [ 308304.329590673092753, 2767331.542734093498439 ], [ 308262.134637207607739, 2767356.587983564473689 ], [ 308222.597752585948911, 2767385.648495834786445 ], [ 308186.099705255241133, 2767418.444397408980876 ], [ 308152.99199748825049, 2767454.659840322099626 ], [ 308123.593480165407527, 2767493.94604398496449 ], [ 308098.187282013066579, 2767535.924654186703265 ], [ 308077.018082871567458, 2767580.191386918071657 ], [ 308060.289757253543939, 2767626.3199219154194 ], [ 308048.163410886714701, 2767673.866008429788053 ], [ 308040.755829150497448, 2767722.371743676252663 ], [ 308038.138352349575143, 2767771.369982769247144 ] ] ] } },
{ "type": "Feature", "properties": { }, "geometry": { "type": "Polygon", "coordinates": [ [ [ 309835.068593785341363, 2771022.835226546507329 ], [ 309833.022387837874703, 2771485.919677563477308 ], [ 309835.213408208743203, 2771534.937945997808129 ], [ 309842.198463668988552, 2771583.505426998250186 ], [ 309853.910285586141981, 2771631.15439800452441 ], [ 309870.236084842123091, 2771677.425982040353119 ], [ 309891.018638033769093, 2771721.874566870275885 ], [ 309916.05780159146525, 2771764.072096405550838 ], [ 309945.112439234857447, 2771803.612193041015416 ], [ 309977.902744203049224, 2771840.114071220625192 ], [ 310014.112933895958122, 2771873.22620454011485 ], [ 310053.394290975760669, 2771902.629711074288934 ], [ 310095.368521642347332, 2771928.041424327995628 ], [ 310139.631398740399163, 2771949.216620231512934 ], [ 310185.75665461452445, 2771965.951373922638595 ], [ 310233.300086222181562, 2771978.08452361728996 ], [ 310281.803832971083466, 2771985.499222657643259 ], [ 310330.800786083971616, 2771988.124064786825329 ], [ 310726.577368363330606, 2771989.878734331112355 ], [ 310775.595690840156749, 2771987.688439337071031 ], [ 310824.16329641995253, 2771980.704098362475634 ], [ 310871.812460929562803, 2771968.992973218671978 ], [ 310918.084305126394611, 2771952.667846412863582 ], [ 310962.533213876420632, 2771931.885935010388494 ], [ 311004.731127594597638, 2771906.847376576624811 ], [ 311044.271664618456271, 2771877.793301776982844 ], [ 311080.774034815025516, 2771845.003512198105454 ], [ 311113.886706732213497, 2771808.793785754591227 ], [ 311143.290792977728415, 2771769.512835630215704 ], [ 311168.703121223777998, 2771727.538952039554715 ], [ 311189.878961262467783, 2771683.276359150186181 ], [ 311206.614381848659832, 2771637.151322257239372 ], [ 311218.748214634542819, 2771589.60804268438369 ], [ 311226.163606280519161, 2771541.10437996359542 ], [ 311228.789143796660937, 2771492.107442473992705 ], [ 311230.848774216952734, 2771029.022777019999921 ], [ 311228.659087919979356, 2770980.003521705046296 ], [ 311221.675173288444057, 2770931.434940769337118 ], [ 311209.96429050777806, 2770883.784785027615726 ], [ 311193.639223910344299, 2770837.511960191652179 ], [ 311172.857195779622998, 2770793.062107272911817 ], [ 311147.818352185771801, 2770750.863310735672712 ], [ 311118.763835432589985, 2770711.321975730825216 ], [ 311085.973461681744084, 2770674.818914119619876 ], [ 311049.763026119384449, 2770641.705676976591349 ], [ 311010.481261618144345, 2770612.3011688971892 ], [ 310968.506480185838882, 2770586.888576715253294 ], [ 310924.242929544998333, 2770565.71264220494777 ], [ 310878.116899933083914, 2770548.977305042091757 ], [ 310830.572618616686668, 2770536.843738715164363 ], [ 310782.067971659475006, 2770529.428798305802047 ], [ 310733.070094145950861, 2770526.803895092569292 ], [ 310337.280087393766735, 2770525.049439985305071 ], [ 310288.260886113042943, 2770527.239851673599333 ], [ 310239.692429750401061, 2770534.224480805918574 ], [ 310192.042467509454582, 2770545.936060374602675 ], [ 310145.769902834086679, 2770562.261799436993897 ], [ 310101.320373837894294, 2770583.044469370972365 ], [ 310059.121961488388479, 2770608.083918101619929 ], [ 310019.581066878861748, 2770637.138997709844261 ], [ 309983.07849729352165, 2770669.929886859841645 ], [ 309949.965798758959863, 2770706.140785679221153 ], [ 309920.561870402831119, 2770745.42295714141801 ], [ 309895.149893225869164, 2770787.398085652384907 ], [ 309873.974602864531334, 2770831.661920503247529 ], [ 309857.239932611060794, 2770877.788169093895704 ], [ 309845.107049388810992, 2770925.332602440845221 ], [ 309837.692801598808728, 2770973.83733341936022 ], [ 309835.068593785341363, 2771022.835226546507329 ] ] ] } },
{ "type": "Feature", "properties": { }, "geometry": { "type": "Polygon", "coordinates": [ [ [ 302411.567060629313346, 2767407.424439702648669 ], [ 302409.596423043578397, 2767916.726194981019944 ], [ 302411.814372413966339, 2767965.74326806422323 ], [ 302418.826111570408102, 2768014.306919770780951 ], [ 302430.564114863460418, 2768061.949464116711169 ], [ 302446.91534096642863, 2768108.212085723876953 ], [ 302467.722321505483706, 2768152.649258382618427 ], [ 302492.784677538322285, 2768194.83303563343361 ], [ 302521.861049277940765, 2768234.357172050513327 ], [ 302554.671420476806816, 2768270.841035536490381 ], [ 302590.899815087206662, 2768303.933272949885577 ], [ 302630.197340227896348, 2768333.315193766262382 ], [ 302672.185546151886228, 2768358.703839187975973 ], [ 302716.460070857952815, 2768379.854707139544189 ], [ 302762.594534246833064, 2768396.564106915611774 ], [ 302810.144644319661893, 2768408.671120796818286 ], [ 302858.6524758747546, 2768416.05915374821052 ], [ 302907.650880497181788, 2768418.657056270167232 ], [ 303290.571865066711325, 2768420.14417921518907 ], [ 303339.588990717078559, 2768417.926930578891188 ], [ 303388.152763128164224, 2768410.9158816030249 ], [ 303435.795494756603148, 2768399.178551347460598 ], [ 303482.058368030877318, 2768382.827974753454328 ], [ 303526.495853938744403, 2768362.02161407424137 ], [ 303568.680002640525345, 2768336.95984245184809 ], [ 303608.20456478826236, 2768307.884014251176268 ], [ 303644.688903860922437, 2768275.074140722397715 ], [ 303677.781661838642322, 2768238.846193389035761 ], [ 303707.164142913417891, 2768199.549061121884733 ], [ 303732.553382651007269, 2768157.56119020562619 ], [ 303753.704873045091517, 2768113.286939758341759 ], [ 303770.414917222806253, 2768067.152687601279467 ], [ 303782.522591122309677, 2768019.602724075317383 ], [ 303789.911293252778705, 2767971.094973361119628 ], [ 303792.509867610933725, 2767922.096583491191268 ], [ 303794.494768568256404, 2767412.794627875089645 ], [ 303792.278107515885495, 2767363.776600691955537 ], [ 303785.267469929880463, 2767315.211885766126215 ], [ 303773.530373313988093, 2767267.568196381442249 ], [ 303757.17985438631149, 2767221.30437567923218 ], [ 303736.373380454082508, 2767176.865977669600397 ], [ 303711.311332889890764, 2767134.680976222734898 ], [ 303682.2350773140206, 2767095.155643373262137 ], [ 303649.424639069533441, 2767058.670636625960469 ], [ 303613.196006375655998, 2767025.577332948334515 ], [ 303573.898087133304216, 2766996.194444758351892 ], [ 303531.909348689543549, 2766970.804950492456555 ], [ 303487.63417292421218, 2766949.653369319625199 ], [ 303441.498961759905796, 2766932.943406243808568 ], [ 303393.948030603583902, 2766920.835990279912949 ], [ 303345.439329268352594, 2766913.44772458774969 ], [ 303296.440031585923862, 2766910.849763503298163 ], [ 302913.504783644806594, 2766909.362840896006674 ], [ 302864.48680902068736, 2766911.580202695913613 ], [ 302815.922214794438332, 2766918.591530476231128 ], [ 302768.278712689352687, 2766930.329300143755972 ], [ 302722.015143653785344, 2766946.680468594189733 ], [ 302677.577058895258233, 2766967.487562398891896 ], [ 302635.392428904015105, 2766992.550194385927171 ], [ 302595.8675217917189, 2767021.626993510872126 ], [ 302559.382990639249329, 2767054.4379294347018 ], [ 302526.29020753595978, 2767090.66700941324234 ], [ 302496.907879615318961, 2767129.965321534313262 ], [ 302471.518979677581228, 2767171.954394988249987 ], [ 302450.368020959896967, 2767216.229845013469458 ], [ 302433.658702298940625, 2767262.365267407614738 ], [ 302421.551946365914773, 2767309.916345107369125 ], [ 302414.164349866099656, 2767358.425127276685089 ], [ 302411.567060629313346, 2767407.424439702648669 ] ] ] } },
{ "type": "Feature", "properties": { }, "geometry": { "type": "Polygon", "coordinates": [ [ [ 308951.06310931686312, 2769149.625174049753696 ], [ 308949.185148721735459, 2769581.286754101980478 ], [ 308951.379497913876548, 2769630.304771634750068 ], [ 308958.367831664741971, 2769678.871678089722991 ], [ 308970.082850050239358, 2769726.519758380949497 ], [ 308986.411733637796715, 2769772.790146016981453 ], [ 309007.197229974030051, 2769817.237242134287953 ], [ 309032.239167977240868, 2769859.433006758801639 ], [ 309061.296385649649892, 2769898.971080970484763 ], [ 309094.089052546012681, 2769935.470700270030648 ], [ 309130.301364631566685, 2769968.580361467786133 ], [ 309169.584585577540565, 2769997.981207770761102 ], [ 309211.560405205353163, 2770023.390099477954209 ], [ 309255.8245827362407, 2770044.562340708449483 ], [ 309301.950839761702809, 2770061.29403590131551 ], [ 309349.494965442630928, 2770073.424053397029638 ], [ 309397.999094404280186, 2770080.835577186662704 ], [ 309446.996116128400899, 2770083.45723188854754 ], [ 309933.060115884058177, 2770085.580672179348767 ], [ 309982.078192930377554, 2770083.387208544183522 ], [ 310030.64524513320066, 2770076.399748322088271 ], [ 310078.293555624608416, 2770064.685583078302443 ], [ 310124.564255324658006, 2770048.357524121645838 ], [ 310169.01174200384412, 2770027.572816090192646 ], [ 310211.207971580442972, 2770002.531622637528926 ], [ 310250.74658032739535, 2769973.47509878501296 ], [ 310287.246798290405422, 2769940.683068523183465 ], [ 310320.357116229017265, 2769904.47133001126349 ], [ 310349.75867076771101, 2769865.188614337239414 ], [ 310375.168315156071912, 2769823.213227119296789 ], [ 310396.341346066445112, 2769778.949405299499631 ], [ 310413.073860168049578, 2769732.823424205649644 ], [ 310425.204717784305103, 2769685.279492378700525 ], [ 310432.617094721121248, 2769636.775473698042333 ], [ 310435.239607322902884, 2769587.778477997519076 ], [ 310437.132924179488327, 2769156.116655756253749 ], [ 310434.940212673507631, 2769107.097433674614877 ], [ 310427.953280748333782, 2769058.529183762613684 ], [ 310416.239417927630711, 2769010.879655589815229 ], [ 310399.911437712085899, 2768964.607750730589032 ], [ 310379.126591098785866, 2768920.159103186335415 ], [ 310354.08505213301396, 2768877.961787590757012 ], [ 310325.02799007872818, 2768838.422196520026773 ], [ 310292.235246772994287, 2768801.921126621775329 ], [ 310256.022641533985734, 2768768.810111248400062 ], [ 310216.738929578452371, 2768739.40803492302075 ], [ 310174.762443240790162, 2768713.998062235303223 ], [ 310130.497448342153803, 2768692.824910748749971 ], [ 310084.37025079963496, 2768676.092494183219969 ], [ 310036.825090972823091, 2768663.961958569008857 ], [ 309988.319865287980065, 2768656.550130285322666 ], [ 309939.321716343110893, 2768653.928390934597701 ], [ 309453.242360325995833, 2768651.805192832835019 ], [ 309404.223197744693607, 2768653.99878991721198 ], [ 309355.65509357152041, 2768660.986595392692834 ], [ 309308.005795594130177, 2768672.701311377808452 ], [ 309261.734202797641046, 2768689.030116245616227 ], [ 309217.285945818235632, 2768709.815751185175031 ], [ 309175.089095181203447, 2768734.858034720178694 ], [ 309135.550038656161632, 2768763.915790611878037 ], [ 309099.049567433889024, 2768796.709170567337424 ], [ 309065.939208817086183, 2768832.922349392436445 ], [ 309036.537840745411813, 2768872.206566628534347 ], [ 309011.128620758303441, 2768914.183485381305218 ], [ 308989.956258972233627, 2768958.448835992719978 ], [ 308973.224661336571444, 2769004.576309464406222 ], [ 308961.094965863798279, 2769052.121663139667362 ], [ 308953.683990747958887, 2769100.626999095082283 ], [ 308951.06310931686312, 2769149.625174049753696 ] ] ] } },
{ "type": "Feature", "properties": { }, "geometry": { "type": "Polygon", "coordinates": [ [ [ 299984.87316587427631, 2773638.603563835844398 ], [ 299982.897779070597608, 2774172.302742299623787 ], [ 299985.123967258958146, 2774221.319494985044003 ], [ 299992.143879315059166, 2774269.882019552402198 ], [ 300003.889910735131707, 2774317.522639862727374 ], [ 300020.248942634207197, 2774363.782558074686676 ], [ 300041.06343112513423, 2774408.216273050289601 ], [ 300066.132924527919386, 2774450.395870703272521 ], [ 300095.215993798221461, 2774489.915144981816411 ], [ 300128.032557583181188, 2774526.393509788904339 ], [ 300164.266579515126068, 2774559.479664178565145 ], [ 300203.569111765187699, 2774588.854975519701838 ], [ 300245.561655547877308, 2774614.236548054032028 ], [ 300289.839806212636176, 2774635.379947292618454 ], [ 300335.977147818950471, 2774652.081554016564041 ], [ 300383.529359689215198, 2774664.180525208357722 ], [ 300432.038495390675962, 2774671.56034303503111 ], [ 300481.037392939149868, 2774674.149936959613115 ], [ 300816.632397686887998, 2774675.396319387946278 ], [ 300865.649199265986681, 2774673.170748637989163 ], [ 300914.211832718225196, 2774666.151444228831679 ], [ 300961.852620458055753, 2774654.406004869844764 ], [ 301008.112762642791495, 2774638.047543840482831 ], [ 301052.546755598683376, 2774617.233599663712084 ], [ 301094.726682199630886, 2774592.164618947543204 ], [ 301134.246332880109549, 2774563.082026004325598 ], [ 301170.725117595808115, 2774530.26589783700183 ], [ 301203.811731058114674, 2774494.032266887370497 ], [ 301233.187535944452975, 2774454.730077514890581 ], [ 301258.569631503196433, 2774412.737825524061918 ], [ 301279.713578001013957, 2774368.459913099184632 ], [ 301296.415750775428023, 2774322.322754248511046 ], [ 301308.515301221574191, 2774274.770668266806751 ], [ 301315.895705828676, 2774226.26160076353699 ], [ 301318.485888348252047, 2774177.262713462579995 ], [ 301320.47440804465441, 2773643.56335975183174 ], [ 301318.249351466249209, 2773594.54576603602618 ], [ 301311.230406426708214, 2773545.982304658275098 ], [ 301299.485170290397946, 2773498.340675817802548 ], [ 301283.126757920428645, 2773452.079701819922775 ], [ 301262.312712303013541, 2773407.644908295944333 ], [ 301237.243487298139371, 2773365.46423347806558 ], [ 301208.160517128184438, 2773325.943906852509826 ], [ 301175.343891197117046, 2773289.46453688852489 ], [ 301139.109656632819679, 2773256.37744550826028 ], [ 301099.806774531956762, 2773227.001284611411393 ], [ 301057.813759219308849, 2773201.618967234622687 ], [ 301013.535032889689319, 2773180.474942899309099 ], [ 300967.397030738356989, 2773163.772843391634524 ], [ 300919.84409409109503, 2773151.673521646764129 ], [ 300871.334191085246857, 2773144.293502619955689 ], [ 300822.334506115643308, 2773141.70386107172817 ], [ 300486.726368475181516, 2773140.457653890363872 ], [ 300437.708823647000827, 2773142.683327917475253 ], [ 300389.145471149589866, 2773149.702880614902824 ], [ 300341.504009736643638, 2773161.448708822950721 ], [ 300295.243259711540304, 2773177.80769207328558 ], [ 300250.808744169771671, 2773198.622282014694065 ], [ 300208.628398302593268, 2773223.692019715439528 ], [ 300169.108448084560223, 2773252.775466220453382 ], [ 300132.629498035472352, 2773285.592527776956558 ], [ 300099.542865735362284, 2773321.827153328806162 ], [ 300070.167198392329738, 2773361.130378311034292 ], [ 300044.785404049209319, 2773403.123685418162495 ], [ 300023.641926982672885, 2773447.402649987954646 ], [ 300006.940393535827752, 2773493.540834893938154 ], [ 299994.841651054914109, 2773541.093897426500916 ], [ 299987.462218818196561, 2773589.60386862559244 ], [ 299984.87316587427631, 2773638.603563835844398 ] ] ] } },
{ "type": "Feature", "properties": { }, "geometry": { "type": "Polygon", "coordinates": [ [ [ 307213.470659112208523, 2767839.307418541517109 ], [ 307211.397754415811505, 2768330.381848090793937 ], [ 307213.598445432726294, 2768379.399582877755165 ], [ 307220.593062909902073, 2768427.965586326085031 ], [ 307232.314246404566802, 2768475.612152016256005 ], [ 307248.649117104941979, 2768521.880428013857454 ], [ 307269.440364889800549, 2768566.324835762847215 ], [ 307294.487763276265468, 2768608.517361151054502 ], [ 307323.550097666098736, 2768648.051676427945495 ], [ 307356.347488320432603, 2768684.547053270507604 ], [ 307392.564085693156812, 2768717.65202932106331 ], [ 307431.85111216455698, 2768747.047792887315154 ], [ 307473.830220883421134, 2768772.451253198087215 ], [ 307518.097139370278455, 2768793.61776666296646 ], [ 307564.225562793202698, 2768810.343492868822068 ], [ 307611.771259421599098, 2768822.467357628513128 ], [ 307660.276348722865805, 2768829.872604178730398 ], [ 307709.273710900626611, 2768832.487917584832758 ], [ 308193.31416907516541, 2768834.539869705680758 ], [ 308242.331965448742267, 2768832.340061588678509 ], [ 308290.898116418393329, 2768825.346314590889961 ], [ 308338.544913725752849, 2768813.625980831682682 ], [ 308384.813502795470413, 2768797.291931040585041 ], [ 308429.258301658031996, 2768776.501467574387789 ], [ 308471.451292052748613, 2768751.454809541348368 ], [ 308510.986141386732925, 2768722.393164625391364 ], [ 308547.48211585363606, 2768689.596406176220626 ], [ 308580.587747027166188, 2768653.380377933382988 ], [ 308609.984216619515792, 2768614.093852348159999 ], [ 308635.3884268081747, 2768572.115171785466373 ], [ 308656.555726562219206, 2768527.848604963626713 ], [ 308673.282267713744659, 2768481.720453708898276 ], [ 308685.406968083640095, 2768434.174947527702898 ], [ 308692.813062756787986, 2768385.669965528417379 ], [ 308695.429228567460086, 2768336.672626891173422 ], [ 308697.519521195732523, 2767845.597930878400803 ], [ 308695.320459834125359, 2767796.578994812909514 ], [ 308688.327236817101948, 2767748.011651919689029 ], [ 308676.607202252082061, 2767700.363643003627658 ], [ 308660.27322907128837, 2767654.093854977283627 ], [ 308639.482625978533179, 2767609.647901427932084 ], [ 308614.435622445773333, 2767567.453831016551703 ], [ 308585.373440349532757, 2767527.918005039915442 ], [ 308552.575970818987116, 2767491.421183859463781 ], [ 308516.359078669338487, 2767458.314859888516366 ], [ 308477.071560381387826, 2767428.917872446589172 ], [ 308435.0917849233374, 2767403.513337096665055 ], [ 308390.824049767339602, 2767382.345919020008296 ], [ 308344.694687194074504, 2767365.61947670718655 ], [ 308297.147958385874517, 2767353.495098640210927 ], [ 308248.641774850140791, 2767346.089551890268922 ], [ 308199.643288380058948, 2767343.474157559219748 ], [ 307715.58544227364473, 2767341.422471901867539 ], [ 307666.56656778184697, 2767343.622416184749454 ], [ 307617.999372401100118, 2767350.616509702522308 ], [ 307570.351595097337849, 2767362.337394025176764 ], [ 307524.082120142353233, 2767378.672188137192279 ], [ 307479.636557709891349, 2767399.46357556944713 ], [ 307437.442952311132103, 2767424.511319474782795 ], [ 307397.907660401484463, 2767453.574191062245518 ], [ 307361.411436858878005, 2767486.372292812447995 ], [ 307328.305768025747966, 2767522.589754104148597 ], [ 307298.909486628195737, 2767561.877773286774755 ], [ 307273.505701175134163, 2767603.857976906467229 ], [ 307252.339069408073556, 2767648.126063728705049 ], [ 307235.613442061643582, 2767694.255698468070477 ], [ 307223.489899626118131, 2767741.802617717068642 ], [ 307216.085201019770466, 2767790.308908544946462 ], [ 307213.470659112208523, 2767839.307418541517109 ] ] ] } },
{ "type": "Feature", "properties": { }, "geometry": { "type": "Polygon", "coordinates": [ [ [ 304215.570389923348557, 2774827.944472655188292 ], [ 304214.122737260186113, 2775188.657226409763098 ], [ 304216.333614505594596, 2775237.674482542090118 ], [ 304223.338320277398452, 2775286.239011511206627 ], [ 304235.069397034996655, 2775333.883121483027935 ], [ 304251.413870784454048, 2775380.147984552197158 ], [ 304272.214339054073207, 2775424.588055396918207 ], [ 304297.270486730150878, 2775466.775362025480717 ], [ 304326.341015155019704, 2775506.303627280052751 ], [ 304359.145965909876395, 2775542.792181415483356 ], [ 304395.369416903005913, 2775575.889628070406616 ], [ 304434.662524800281972, 2775605.27722832467407 ], [ 304476.64688449667301, 2775630.671970257069916 ], [ 304520.918173277925234, 2775651.829294439870864 ], [ 304567.050044576695655, 2775668.545449123252183 ], [ 304614.598233825119678, 2775680.65945243043825 ], [ 304663.104836863756645, 2775688.05464266333729 ], [ 304712.102719704213087, 2775690.65980179188773 ], [ 305215.371722470154054, 2775692.688989783171564 ], [ 305264.389035174681339, 2775690.479027859400958 ], [ 305312.953709945315495, 2775683.475225970614702 ], [ 305360.598053253197577, 2775671.745032995473593 ], [ 305406.863234658900183, 2775655.401414486579597 ], [ 305451.303705498576164, 2775634.60176477720961 ], [ 305493.491489661158994, 2775609.546391223557293 ], [ 305533.020305137266405, 2775580.476585177704692 ], [ 305569.50947664596606, 2775547.672298276796937 ], [ 305602.607601661235094, 2775511.449446415528655 ], [ 305631.99593453167472, 2775472.156867376063019 ], [ 305657.391456104523968, 2775430.172961405944079 ], [ 305678.549599291349296, 2775385.902047101408243 ], [ 305695.266604328528047, 2775339.77046768926084 ], [ 305707.381481049524155, 2775292.222485202830285 ], [ 305714.777559272246435, 2775243.716002095956355 ], [ 305717.383612370758783, 2775194.718151492998004 ], [ 305718.844582107034512, 2774834.005205034278333 ], [ 305716.635404522588942, 2774784.986703568138182 ], [ 305709.632154625200201, 2774736.420785040594637 ], [ 305697.902279144560453, 2774688.775176923722029 ], [ 305681.558745881600771, 2774642.508743388578296 ], [ 305660.758955741068348, 2774598.067066083662212 ], [ 305635.703226838668343, 2774555.878152839373797 ], [ 305606.63286528212484, 2774516.348315620329231 ], [ 305573.827841206104495, 2774479.8582574268803 ], [ 305537.604092442954425, 2774446.759405829012394 ], [ 305498.310481795691885, 2774417.37052844511345 ], [ 305456.325437219231389, 2774391.974662964697927 ], [ 305412.053307265101466, 2774370.816391274798661 ], [ 305365.920466891257092, 2774354.099483946803957 ], [ 305318.371211140707601, 2774341.984937766566873 ], [ 305269.863476235361304, 2774334.589425213169307 ], [ 305220.864429294946603, 2774331.984170809388161 ], [ 304717.582109455892351, 2774329.955175522249192 ], [ 304668.563664547924418, 2774332.165268450975418 ], [ 304619.997891812061425, 2774339.169422255363315 ], [ 304572.352517026010901, 2774350.900181542150676 ], [ 304526.086401826760266, 2774367.244570069015026 ], [ 304481.645124519709498, 2774388.045178792439401 ], [ 304439.456688816542737, 2774413.101681837812066 ], [ 304399.927401830034796, 2774442.172765792347491 ], [ 304363.437961023882963, 2774474.978453738149256 ], [ 304330.339787802891806, 2774511.202801646664739 ], [ 304300.951643054373562, 2774550.496941161341965 ], [ 304275.556557235540822, 2774592.48243946954608 ], [ 304254.399104572134092, 2774636.754943902138621 ], [ 304237.683047620463185, 2774682.888076160103083 ], [ 304225.569374877086375, 2774730.437538666184992 ], [ 304218.174750335805584, 2774778.945393492467701 ], [ 304215.570389923348557, 2774827.944472655188292 ] ] ] } },
{ "type": "Feature", "properties": { }, "geometry": { "type": "Polygon", "coordinates": [ [ [ 305666.038349403301254, 2770433.77691190270707 ], [ 305664.773214614135213, 2770741.427932508755475 ], [ 305666.979247319453862, 2770790.445455712731928 ], [ 305673.979162796924356, 2770839.010724626015872 ], [ 305685.705549503909424, 2770886.656039360444993 ], [ 305702.045478388899937, 2770932.922559495083988 ], [ 305722.84159043582622, 2770977.364722866099328 ], [ 305747.893612084910274, 2771019.554536478128284 ], [ 305776.960283933905885, 2771059.085698223672807 ], [ 305809.761684147815686, 2771095.57750970730558 ], [ 305845.981924200081266, 2771128.678542498964816 ], [ 305885.272190985735506, 2771158.070022510364652 ], [ 305927.25410600862233, 2771183.468899894040078 ], [ 305971.523369294125587, 2771204.630574910435826 ], [ 306017.653652933775447, 2771221.351253504864872 ], [ 306065.200706766510848, 2771233.469909914303571 ], [ 306113.7066366574727, 2771240.869837396778166 ], [ 306162.704314172500744, 2771243.479772160761058 ], [ 306625.056622244534083, 2771245.38900096854195 ], [ 306674.074196583300363, 2771243.183807205408812 ], [ 306722.639598427980673, 2771236.184720317833126 ], [ 306770.285126354545355, 2771224.459143905900419 ], [ 306816.551937639305834, 2771208.119999279268086 ], [ 306860.994467071257532, 2771187.324637986719608 ], [ 306903.184717897325754, 2771162.273326467722654 ], [ 306942.716383577440865, 2771133.20731741655618 ], [ 306979.208760655368678, 2771100.406526438426226 ], [ 307012.310415063402615, 2771064.186836364679039 ], [ 307041.702566552325152, 2771024.897055194247514 ], [ 307067.102158654248342, 2770982.915556951891631 ], [ 307088.26458461326547, 2770938.646637819707394 ], [ 307104.986043032084126, 2770892.516622624360025 ], [ 307117.105500549136195, 2770844.96975918347016 ], [ 307124.506242645031307, 2770796.46394004765898 ], [ 307127.116997643024661, 2770747.466292839497328 ], [ 307128.392548211442772, 2770439.815117152407765 ], [ 307126.188074320787564, 2770390.796452728565782 ], [ 307119.189494235499296, 2770342.229910295922309 ], [ 307107.464209577417932, 2770294.583222407381982 ], [ 307091.125143709999975, 2770248.315262719988823 ], [ 307070.329654200701043, 2770203.871626695152372 ], [ 307045.278017348842695, 2770161.680340176448226 ], [ 307016.211499373079278, 2770122.147737178020179 ], [ 306983.410032835206948, 2770085.654546580277383 ], [ 306947.189520677842665, 2770052.552225421182811 ], [ 306907.898793839965947, 2770023.159574101679027 ], [ 306865.916251751070376, 2769997.759666093625128 ], [ 306821.646218058245722, 2769976.597121731378138 ], [ 306775.515046683838591, 2769959.875752329360694 ], [ 306727.967015714035369, 2769947.756597327999771 ], [ 306679.460048665234353, 2769940.356373359914869 ], [ 306630.461304333759472, 2769937.746350181289017 ], [ 306168.098580482474063, 2769935.837276454549283 ], [ 306119.079967181372922, 2769938.042589306365699 ], [ 306070.513557671743911, 2769945.041998001746833 ], [ 306022.86708297097357, 2769956.768092974554747 ], [ 305976.599414432712365, 2769973.107943120412529 ], [ 305932.156144471548032, 2769993.90418340312317 ], [ 305889.965295172703918, 2770018.956530402414501 ], [ 305850.433196117868647, 2770048.023711191955954 ], [ 305813.940571126120631, 2770080.825786978937685 ], [ 305780.838871597370598, 2770117.046849125996232 ], [ 305751.446891771396622, 2770156.3380615869537 ], [ 305726.047698499518447, 2770198.3210204616189 ], [ 305704.88590509846108, 2770242.591398309450597 ], [ 305688.165315540041775, 2770288.722838126122952 ], [ 305676.046961665793788, 2770336.271059481892735 ], [ 305668.647552329581231, 2770384.778137276880443 ], [ 305666.038349403301254, 2770433.77691190270707 ] ] ] } }
]
}
